{
    "links": {
        "self": "http://www.neowsapp.com/rest/v1/neo/3791339?api_key=iIulBulltgU6a56xZRHN4H3l9WmuAYTsLGpBGhQ2"
    },
    "id": "3791339",
    "neo_reference_id": "3791339",
    "name": "(2017 XR60)",
    "designation": "2017 XR60",
    "nasa_jpl_url": "http://ssd.jpl.nasa.gov/sbdb.cgi?sstr=3791339",
    "absolute_magnitude_h": 24.7,
    "estimated_diameter": {
        "kilometers": {
            "estimated_diameter_min": 0.0305179233,
            "estimated_diameter_max": 0.0682401509
        },
        "meters": {
            "estimated_diameter_min": 30.5179232594,
            "estimated_diameter_max": 68.2401509401
        },
        "miles": {
            "estimated_diameter_min": 0.0189629525,
            "estimated_diameter_max": 0.0424024508
        },
        "feet": {
            "estimated_diameter_min": 100.1244233463,
            "estimated_diameter_max": 223.8850168104
        }
    },
    "is_potentially_hazardous_asteroid": false,
    "close_approach_data": [
        {
            "close_approach_date": "1954-01-25",
            "close_approach_date_full": "1954-Jan-25 01:02",
            "epoch_date_close_approach": -502844280000,
            "relative_velocity": {
                "kilometers_per_second": "15.5495116868",
                "kilometers_per_hour": "55978.2420724447",
                "miles_per_hour": "34782.702692181"
            },
            "miss_distance": {
                "astronomical": "0.3134922947",
                "lunar": "121.9485026383",
                "kilometers": "46897779.548532289",
                "miles": "29140928.9286280282"
            },
            "orbiting_body": "Earth"
        },
        {
            "close_approach_date": "1990-10-24",
            "close_approach_date_full": "1990-Oct-24 04:10",
            "epoch_date_close_approach": 656741400000,
            "relative_velocity": {
                "kilometers_per_second": "13.4702063866",
                "kilometers_per_hour": "48492.7429917827",
                "miles_per_hour": "30131.5046661996"
            },
            "miss_distance": {
                "astronomical": "0.2453701125",
                "lunar": "95.4489737625",
                "kilometers": "36706846.191660375",
                "miles": "22808576.575748175"
            },
            "orbiting_body": "Earth"
        },
        {
            "close_approach_date": "2017-12-21",
            "close_approach_date_full": "2017-Dec-21 09:01",
            "epoch_date_close_approach": 1513846860000,
            "relative_velocity": {
                "kilometers_per_second": "6.1631176675",
                "kilometers_per_hour": "22187.2236030951",
                "miles_per_hour": "13786.2779104899"
            },
            "miss_distance": {
                "astronomical": "0.033296228",
                "lunar": "12.952232692",
                "kilometers": "4981044.78783436",
                "miles": "3095077.710499768"
            },
            "orbiting_body": "Earth"
        },
        {
            "close_approach_date": "2022-10-19",
            "close_approach_date_full": "2022-Oct-19 18:32",
            "epoch_date_close_approach": 1666204320000,
            "relative_velocity": {
                "kilometers_per_second": "15.6892808025",
                "kilometers_per_hour": "56481.4108890871",
                "miles_per_hour": "35095.3522271664"
            },
            "miss_distance": {
                "astronomical": "0.3163642605",
                "lunar": "123.0656973345",
                "kilometers": "47327419.514925135",
                "miles": "29407894.824371463"
            },
            "orbiting_body": "Earth"
        },
        {
            "close_approach_date": "2040-07-03",
            "close_approach_date_full": "2040-Jul-03 01:19",
            "epoch_date_close_approach": 2224891140000,
            "relative_velocity": {
                "kilometers_per_second": "11.763939457",
                "kilometers_per_hour": "42350.1820451719",
                "miles_per_hour": "26314.7561713459"
            },
            "miss_distance": {
                "astronomical": "0.0107941166",
                "lunar": "4.1989113574",
                "kilometers": "1614776.851891642",
                "miles": "1003375.8086109796"
            },
            "orbiting_body": "Mars"
        }
    ],
    "orbital_data": {
        "orbit_id": "8",
        "orbit_determination_date": "2018-01-21 06:55:04",
        "first_observation_date": "2017-12-14",
        "last_observation_date": "2018-01-20",
        "data_arc_in_days": 37,
        "observations_used": 61,
        "orbit_uncertainty": "6",
        "minimum_orbit_intersection": ".0183592",
        "jupiter_tisserand_invariant": "3.906",
        "epoch_osculation": "2459000.5",
        "eccentricity": ".452293890008541",
        "semi_major_axis": "1.825554418326286",
        "inclination": "2.094420094589776",
        "ascending_node_longitude": "57.90680487931538",
        "orbital_period": "900.9290734380941",
        "perihelion_distance": ".9998673090392106",
        "perihelion_argument": "19.54584809102063",
        "aphelion_distance": "2.651241527613362",
        "perihelion_time": "2459001.232248540586",
        "mean_anomaly": "359.707402633145",
        "mean_motion": ".3995875042928524",
        "equinox": "J2000",
        "orbit_class": {
            "orbit_class_type": "APO",
            "orbit_class_description": "Near-Earth asteroid orbits which cross the Earth’s orbit similar to that of 1862 Apollo",
            "orbit_class_range": "a (semi-major axis) > 1.0 AU; q (perihelion) < 1.017 AU"
        }
    },
    "is_sentry_object": false
}